[
  {
    "code": "LT",
    "name_vi": "Lithuania",
    "name_en": "Lithuania",
    "official_name": "Republic of Lithuania",
    "capital": "Vilnius",
    "continent": "Europe",
    "population_millions": 3,
    "area_km2": 65300,
    "languages": [
      "Lithuanian"
    ],
    "religions": []
  },
  {
    "code": "CL",
    "name_vi": "Chile",
    "name_en": "Chile",
    "official_name": "Republic of Chile",
    "capital": "Santiago",
    "continent": "Americas",
    "population_millions": 19,
    "area_km2": 756102,
    "languages": [
      "Spanish"
    ],
    "religions": []
  },
  {
    "code": "BJ",
    "name_vi": "Benin",
    "name_en": "Benin",
    "official_name": "Republic of Benin",
    "capital": "Porto-Novo",
    "continent": "Africa",
    "population_millions": 12,
    "area_km2": 112622,
    "languages": [
      "French"
    ],
    "religions": []
  },
  {
    "code": "FK",
    "name_vi": "Falkland Islands",
    "name_en": "Falkland Islands",
    "official_name": "Falkland Islands",
    "capital": "Stanley",
    "continent": "Americas",
    "population_millions": 0,
    "area_km2": 12173,
    "languages": [
      "English"
    ],
    "religions": []
  },
  {
    "code": "GE",
    "name_vi": "Georgia",
    "name_en": "Georgia",
    "official_name": "Georgia",
    "capital": "Tbilisi",
    "continent": "Asia",
    "population_millions": 4,
    "area_km2": 69700,
    "languages": [
      "Georgian"
    ],
    "religions": []
  },
  {
    "code": "CY",
    "name_vi": "Cyprus",
    "name_en": "Cyprus",
    "official_name": "Republic of Cyprus",
    "capital": "Nicosia",
    "continent": "Europe",
    "population_millions": 1,
    "area_km2": 9251,
    "languages": [
      "Greek",
      "Turkish"
    ],
    "religions": []
  },
  {
    "code": "GH",
    "name_vi": "Ghana",
    "name_en": "Ghana",
    "official_name": "Republic of Ghana",
    "capital": "Accra",
    "continent": "Africa",
    "population_millions": 31,
    "area_km2": 238533,
    "languages": [
      "English"
    ],
    "religions": []
  },
  {
    "code": "BE",
    "name_vi": "Belgium",
    "name_en": "Belgium",
    "official_name": "Kingdom of Belgium",
    "capital": "Brussels",
    "continent": "Europe",
    "population_millions": 12,
    "area_km2": 30528,
    "languages": [
      "German",
      "French",
      "Dutch"
    ],
    "religions": []
  },
  {
    "code": "CU",
    "name_vi": "Cuba",
    "name_en": "Cuba",
    "official_name": "Republic of Cuba",
    "capital": "Havana",
    "continent": "Americas",
    "population_millions": 11,
    "area_km2": 109884,
    "languages": [
      "Spanish"
    ],
    "religions": []
  },
  {
    "code": "AD",
    "name_vi": "Andorra",
    "name_en": "Andorra",
    "official_name": "Principality of Andorra",
    "capital": "Andorra la Vella",
    "continent": "Europe",
    "population_millions": 0,
    "area_km2": 468,
    "languages": [
      "Catalan"
    ],
    "religions": []
  },
  {
    "code": "AR",
    "name_vi": "Argentina",
    "name_en": "Argentina",
    "official_name": "Argentine Republic",
    "capital": "Buenos Aires",
    "continent": "Americas",
    "population_millions": 45,
    "area_km2": 2780400,
    "languages": [
      "Guaraní",
      "Spanish"
    ],
    "religions": []
  },
  {
    "code": "SV",
    "name_vi": "El Salvador",
    "name_en": "El Salvador",
    "official_name": "Republic of El Salvador",
    "capital": "San Salvador",
    "continent": "Americas",
    "population_millions": 6,
    "area_km2": 21041,
    "languages": [
      "Spanish"
    ],
    "religions": []
  },
  {
    "code": "UZ",
    "name_vi": "Uzbekistan",
    "name_en": "Uzbekistan",
    "official_name": "Republic of Uzbekistan",
    "capital": "Tashkent",
    "continent": "Asia",
    "population_millions": 34,
    "area_km2": 447400,
    "languages": [
      "Russian",
      "Uzbek"
    ],
    "religions": []
  },
  {
    "code": "BZ",
    "name_vi": "Belize",
    "name_en": "Belize",
    "official_name": "Belize",
    "capital": "Belmopan",
    "continent": "Americas",
    "population_millions": 0,
    "area_km2": 22966,
    "languages": [
      "Belizean Creole",
      "English",
      "Spanish"
    ],
    "religions": []
  },
  {
    "code": "LV",
    "name_vi": "Latvia",
    "name_en": "Latvia",
    "official_name": "Republic of Latvia",
    "capital": "Riga",
    "continent": "Europe",
    "population_millions": 2,
    "area_km2": 64559,
    "languages": [
      "Latvian"
    ],
    "religions": []
  },
  {
    "code": "CI",
    "name_vi": "Ivory Coast",
    "name_en": "Ivory Coast",
    "official_name": "Republic of Côte d'Ivoire",
    "capital": "Yamoussoukro",
    "continent": "Africa",
    "population_millions": 26,
    "area_km2": 322463,
    "languages": [
      "French"
    ],
    "religions": []
  },
  {
    "code": "FR",
    "name_vi": "France",
    "name_en": "France",
    "official_name": "French Republic",
    "capital": "Paris",
    "continent": "Europe",
    "population_millions": 67,
    "area_km2": 551695,
    "languages": [
      "French"
    ],
    "religions": []
  },
  {
    "code": "MP",
    "name_vi": "Northern Mariana Islands",
    "name_en": "Northern Mariana Islands",
    "official_name": "Commonwealth of the Northern Mariana Islands",
    "capital": "Saipan",
    "continent": "Oceania",
    "population_millions": 0,
    "area_km2": 464,
    "languages": [
      "Carolinian",
      "Chamorro",
      "English"
    ],
    "religions": []
  },
  {
    "code": "CG",
    "name_vi": "Republic of the Congo",
    "name_en": "Republic of the Congo",
    "official_name": "Republic of the Congo",
    "capital": "Brazzaville",
    "continent": "Africa",
    "population_millions": 6,
    "area_km2": 342000,
    "languages": [
      "French",
      "Kikongo",
      "Lingala"
    ],
    "religions": []
  },
  {
    "code": "BD",
    "name_vi": "Bangladesh",
    "name_en": "Bangladesh",
    "official_name": "People's Republic of Bangladesh",
    "capital": "Dhaka",
    "continent": "Asia",
    "population_millions": 165,
    "area_km2": 147570,
    "languages": [
      "Bengali"
    ],
    "religions": []
  },
  {
    "code": "PW",
    "name_vi": "Palau",
    "name_en": "Palau",
    "official_name": "Republic of Palau",
    "capital": "Ngerulmud",
    "continent": "Oceania",
    "population_millions": 0,
    "area_km2": 459,
    "languages": [
      "English",
      "Palauan"
    ],
    "religions": []
  },
  {
    "code": "AF",
    "name_vi": "Afghanistan",
    "name_en": "Afghanistan",
    "official_name": "Islamic Republic of Afghanistan",
    "capital": "Kabul",
    "continent": "Asia",
    "population_millions": 40,
    "area_km2": 652230,
    "languages": [
      "Dari",
      "Pashto",
      "Turkmen"
    ],
    "religions": []
  },
  {
    "code": "ET",
    "name_vi": "Ethiopia",
    "name_en": "Ethiopia",
    "official_name": "Federal Democratic Republic of Ethiopia",
    "capital": "Addis Ababa",
    "continent": "Africa",
    "population_millions": 115,
    "area_km2": 1104300,
    "languages": [
      "Amharic"
    ],
    "religions": []
  },
  {
    "code": "NC",
    "name_vi": "New Caledonia",
    "name_en": "New Caledonia",
    "official_name": "New Caledonia",
    "capital": "Nouméa",
    "continent": "Oceania",
    "population_millions": 0,
    "area_km2": 18575,
    "languages": [
      "French"
    ],
    "religions": []
  },
  {
    "code": "TM",
    "name_vi": "Turkmenistan",
    "name_en": "Turkmenistan",
    "official_name": "Turkmenistan",
    "capital": "Ashgabat",
    "continent": "Asia",
    "population_millions": 6,
    "area_km2": 488100,
    "languages": [
      "Russian",
      "Turkmen"
    ],
    "religions": []
  },
  {
    "code": "JO",
    "name_vi": "Jordan",
    "name_en": "Jordan",
    "official_name": "Hashemite Kingdom of Jordan",
    "capital": "Amman",
    "continent": "Asia",
    "population_millions": 10,
    "area_km2": 89342,
    "languages": [
      "Arabic"
    ],
    "religions": []
  },
  {
    "code": "MS",
    "name_vi": "Montserrat",
    "name_en": "Montserrat",
    "official_name": "Montserrat",
    "capital": "Plymouth",
    "continent": "Americas",
    "population_millions": 0,
    "area_km2": 102,
    "languages": [
      "English"
    ],
    "religions": []
  },
  {
    "code": "BG",
    "name_vi": "Bulgaria",
    "name_en": "Bulgaria",
    "official_name": "Republic of Bulgaria",
    "capital": "Sofia",
    "continent": "Europe",
    "population_millions": 7,
    "area_km2": 110879,
    "languages": [
      "Bulgarian"
    ],
    "religions": []
  },
  {
    "code": "LC",
    "name_vi": "Saint Lucia",
    "name_en": "Saint Lucia",
    "official_name": "Saint Lucia",
    "capital": "Castries",
    "continent": "Americas",
    "population_millions": 0,
    "area_km2": 616,
    "languages": [
      "English"
    ],
    "religions": []
  },
  {
    "code": "SN",
    "name_vi": "Senegal",
    "name_en": "Senegal",
    "official_name": "Republic of Senegal",
    "capital": "Dakar",
    "continent": "Africa",
    "population_millions": 17,
    "area_km2": 196722,
    "languages": [
      "French"
    ],
    "religions": []
  },
  {
    "code": "UY",
    "name_vi": "Uruguay",
    "name_en": "Uruguay",
    "official_name": "Oriental Republic of Uruguay",
    "capital": "Montevideo",
    "continent": "Americas",
    "population_millions": 3,
    "area_km2": 181034,
    "languages": [
      "Spanish"
    ],
    "religions": []
  },
  {
    "code": "GW",
    "name_vi": "Guinea-Bissau",
    "name_en": "Guinea-Bissau",
    "official_name": "Republic of Guinea-Bissau",
    "capital": "Bissau",
    "continent": "Africa",
    "population_millions": 2,
    "area_km2": 36125,
    "languages": [
      "Portuguese",
      "Upper Guinea Creole"
    ],
    "religions": []
  },
  {
    "code": "PH",
    "name_vi": "Philippines",
    "name_en": "Philippines",
    "official_name": "Republic of the Philippines",
    "capital": "Manila",
    "continent": "Asia",
    "population_millions": 110,
    "area_km2": 342353,
    "languages": [
      "English",
      "Filipino"
    ],
    "religions": []
  },
  {
    "code": "TZ",
    "name_vi": "Tanzania",
    "name_en": "Tanzania",
    "official_name": "United Republic of Tanzania",
    "capital": "Dodoma",
    "continent": "Africa",
    "population_millions": 60,
    "area_km2": 945087,
    "languages": [
      "English",
      "Swahili"
    ],
    "religions": []
  },
  {
    "code": "IM",
    "name_vi": "Isle of Man",
    "name_en": "Isle of Man",
    "official_name": "Isle of Man",
    "capital": "Douglas",
    "continent": "Europe",
    "population_millions": 0,
    "area_km2": 572,
    "languages": [
      "English",
      "Manx"
    ],
    "religions": []
  },
  {
    "code": "SD",
    "name_vi": "Sudan",
    "name_en": "Sudan",
    "official_name": "Republic of the Sudan",
    "capital": "Khartoum",
    "continent": "Africa",
    "population_millions": 44,
    "area_km2": 1886068,
    "languages": [
      "Arabic",
      "English"
    ],
    "religions": []
  },
  {
    "code": "SL",
    "name_vi": "Sierra Leone",
    "name_en": "Sierra Leone",
    "official_name": "Republic of Sierra Leone",
    "capital": "Freetown",
    "continent": "Africa",
    "population_millions": 8,
    "area_km2": 71740,
    "languages": [
      "English"
    ],
    "religions": []
  },
  {
    "code": "TD",
    "name_vi": "Chad",
    "name_en": "Chad",
    "official_name": "Republic of Chad",
    "capital": "N'Djamena",
    "continent": "Africa",
    "population_millions": 16,
    "area_km2": 1284000,
    "languages": [
      "Arabic",
      "French"
    ],
    "religions": []
  },
  {
    "code": "VU",
    "name_vi": "Vanuatu",
    "name_en": "Vanuatu",
    "official_name": "Republic of Vanuatu",
    "capital": "Port Vila",
    "continent": "Oceania",
    "population_millions": 0,
    "area_km2": 12189,
    "languages": [
      "Bislama",
      "English",
      "French"
    ],
    "religions": []
  },
  {
    "code": "RW",
    "name_vi": "Rwanda",
    "name_en": "Rwanda",
    "official_name": "Republic of Rwanda",
    "capital": "Kigali",
    "continent": "Africa",
    "population_millions": 13,
    "area_km2": 26338,
    "languages": [
      "English",
      "French",
      "Kinyarwanda"
    ],
    "religions": []
  },
  {
    "code": "PS",
    "name_vi": "Palestine",
    "name_en": "Palestine",
    "official_name": "State of Palestine",
    "capital": "Ramallah",
    "continent": "Asia",
    "population_millions": 5,
    "area_km2": 6220,
    "languages": [
      "Arabic"
    ],
    "religions": []
  },
  {
    "code": "TG",
    "name_vi": "Togo",
    "name_en": "Togo",
    "official_name": "Togolese Republic",
    "capital": "Lomé",
    "continent": "Africa",
    "population_millions": 8,
    "area_km2": 56785,
    "languages": [
      "French"
    ],
    "religions": []
  },
  {
    "code": "AE",
    "name_vi": "United Arab Emirates",
    "name_en": "United Arab Emirates",
    "official_name": "United Arab Emirates",
    "capital": "Abu Dhabi",
    "continent": "Asia",
    "population_millions": 10,
    "area_km2": 83600,
    "languages": [
      "Arabic"
    ],
    "religions": []
  },
  {
    "code": "AQ",
    "name_vi": "Antarctica",
    "name_en": "Antarctica",
    "official_name": "Antarctica",
    "capital": "",
    "continent": "Antarctic",
    "population_millions": 0,
    "area_km2": 14000000,
    "languages": [],
    "religions": []
  },
  {
    "code": "KM",
    "name_vi": "Comoros",
    "name_en": "Comoros",
    "official_name": "Union of the Comoros",
    "capital": "Moroni",
    "continent": "Africa",
    "population_millions": 1,
    "area_km2": 1862,
    "languages": [
      "Arabic",
      "French",
      "Comorian"
    ],
    "religions": []
  },
  {
    "code": "XK",
    "name_vi": "Kosovo",
    "name_en": "Kosovo",
    "official_name": "Republic of Kosovo",
    "capital": "Pristina",
    "continent": "Europe",
    "population_millions": 2,
    "area_km2": 10908,
    "languages": [
      "Albanian",
      "Serbian"
    ],
    "religions": []
  },
  {
    "code": "MD",
    "name_vi": "Moldova",
    "name_en": "Moldova",
    "official_name": "Republic of Moldova",
    "capital": "Chișinău",
    "continent": "Europe",
    "population_millions": 3,
    "area_km2": 33846,
    "languages": [
      "Romanian"
    ],
    "religions": []
  },
  {
    "code": "KG",
    "name_vi": "Kyrgyzstan",
    "name_en": "Kyrgyzstan",
    "official_name": "Kyrgyz Republic",
    "capital": "Bishkek",
    "continent": "Asia",
    "population_millions": 7,
    "area_km2": 199951,
    "languages": [
      "Kyrgyz",
      "Russian"
    ],
    "religions": []
  },
  {
    "code": "CV",
    "name_vi": "Cape Verde",
    "name_en": "Cape Verde",
    "official_name": "Republic of Cabo Verde",
    "capital": "Praia",
    "continent": "Africa",
    "population_millions": 1,
    "area_km2": 4033,
    "languages": [
      "Portuguese"
    ],
    "religions": []
  },
  {
    "code": "US",
    "name_vi": "United States",
    "name_en": "United States",
    "official_name": "United States of America",
    "capital": "Washington, D.C.",
    "continent": "Americas",
    "population_millions": 329,
    "area_km2": 9372610,
    "languages": [
      "English"
    ],
    "religions": []
  },
  {
    "code": "VE",
    "name_vi": "Venezuela",
    "name_en": "Venezuela",
    "official_name": "Bolivarian Republic of Venezuela",
    "capital": "Caracas",
    "continent": "Americas",
    "population_millions": 28,
    "area_km2": 916445,
    "languages": [
      "Spanish"
    ],
    "religions": []
  },
  {
    "code": "PN",
    "name_vi": "Pitcairn Islands",
    "name_en": "Pitcairn Islands",
    "official_name": "Pitcairn Group of Islands",
    "capital": "Adamstown",
    "continent": "Oceania",
    "population_millions": 0,
    "area_km2": 47,
    "languages": [
      "English"
    ],
    "religions": []
  },
  {
    "code": "YT",
    "name_vi": "Mayotte",
    "name_en": "Mayotte",
    "official_name": "Department of Mayotte",
    "capital": "Mamoudzou",
    "continent": "Africa",
    "population_millions": 0,
    "area_km2": 374,
    "languages": [
      "French"
    ],
    "religions": []
  },
  {
    "code": "TL",
    "name_vi": "Timor-Leste",
    "name_en": "Timor-Leste",
    "official_name": "Democratic Republic of Timor-Leste",
    "capital": "Dili",
    "continent": "Asia",
    "population_millions": 1,
    "area_km2": 14874,
    "languages": [
      "Portuguese",
      "Tetum"
    ],
    "religions": []
  },
  {
    "code": "SB",
    "name_vi": "Solomon Islands",
    "name_en": "Solomon Islands",
    "official_name": "Solomon Islands",
    "capital": "Honiara",
    "continent": "Oceania",
    "population_millions": 1,
    "area_km2": 28896,
    "languages": [
      "English"
    ],
    "religions": []
  },
  {
    "code": "PM",
    "name_vi": "Saint Pierre and Miquelon",
    "name_en": "Saint Pierre and Miquelon",
    "official_name": "Saint Pierre and Miquelon",
    "capital": "Saint-Pierre",
    "continent": "Americas",
    "population_millions": 0,
    "area_km2": 242,
    "languages": [
      "French"
    ],
    "religions": []
  },
  {
    "code": "EC",
    "name_vi": "Ecuador",
    "name_en": "Ecuador",
    "official_name": "Republic of Ecuador",
    "capital": "Quito",
    "continent": "Americas",
    "population_millions": 18,
    "area_km2": 276841,
    "languages": [
      "Spanish"
    ],
    "religions": []
  },
  {
    "code": "MT",
    "name_vi": "Malta",
    "name_en": "Malta",
    "official_name": "Republic of Malta",
    "capital": "Valletta",
    "continent": "Europe",
    "population_millions": 1,
    "area_km2": 316,
    "languages": [
      "English",
      "Maltese"
    ],
    "religions": []
  },
  {
    "code": "CF",
    "name_vi": "Central African Republic",
    "name_en": "Central African Republic",
    "official_name": "Central African Republic",
    "capital": "Bangui",
    "continent": "Africa",
    "population_millions": 5,
    "area_km2": 622984,
    "languages": [
      "French",
      "Sango"
    ],
    "religions": []
  },
  {
    "code": "TO",
    "name_vi": "Tonga",
    "name_en": "Tonga",
    "official_name": "Kingdom of Tonga",
    "capital": "Nuku'alofa",
    "continent": "Oceania",
    "population_millions": 0,
    "area_km2": 747,
    "languages": [
      "English",
      "Tongan"
    ],
    "religions": []
  },
  {
    "code": "GR",
    "name_vi": "Greece",
    "name_en": "Greece",
    "official_name": "Hellenic Republic",
    "capital": "Athens",
    "continent": "Europe",
    "population_millions": 11,
    "area_km2": 131990,
    "languages": [
      "Greek"
    ],
    "religions": []
  },
  {
    "code": "AT",
    "name_vi": "Austria",
    "name_en": "Austria",
    "official_name": "Republic of Austria",
    "capital": "Vienna",
    "continent": "Europe",
    "population_millions": 9,
    "area_km2": 83871,
    "languages": [
      "German"
    ],
    "religions": []
  },
  {
    "code": "KN",
    "name_vi": "Saint Kitts and Nevis",
    "name_en": "Saint Kitts and Nevis",
    "official_name": "Federation of Saint Christopher and Nevis",
    "capital": "Basseterre",
    "continent": "Americas",
    "population_millions": 0,
    "area_km2": 261,
    "languages": [
      "English"
    ],
    "religions": []
  },
  {
    "code": "NG",
    "name_vi": "Nigeria",
    "name_en": "Nigeria",
    "official_name": "Federal Republic of Nigeria",
    "capital": "Abuja",
    "continent": "Africa",
    "population_millions": 206,
    "area_km2": 923768,
    "languages": [
      "English"
    ],
    "religions": []
  },
  {
    "code": "NU",
    "name_vi": "Niue",
    "name_en": "Niue",
    "official_name": "Niue",
    "capital": "Alofi",
    "continent": "Oceania",
    "population_millions": 0,
    "area_km2": 260,
    "languages": [
      "English",
      "Niuean"
    ],
    "religions": []
  },
  {
    "code": "CZ",
    "name_vi": "Czechia",
    "name_en": "Czechia",
    "official_name": "Czech Republic",
    "capital": "Prague",
    "continent": "Europe",
    "population_millions": 11,
    "area_km2": 78865,
    "languages": [
      "Czech",
      "Slovak"
    ],
    "religions": []
  },
  {
    "code": "SM",
    "name_vi": "San Marino",
    "name_en": "San Marino",
    "official_name": "Republic of San Marino",
    "capital": "City of San Marino",
    "continent": "Europe",
    "population_millions": 0,
    "area_km2": 61,
    "languages": [
      "Italian"
    ],
    "religions": []
  },
  {
    "code": "BQ",
    "name_vi": "Caribbean Netherlands",
    "name_en": "Caribbean Netherlands",
    "official_name": "Bonaire, Sint Eustatius and Saba",
    "capital": "Kralendijk",
    "continent": "Americas",
    "population_millions": 0,
    "area_km2": 328,
    "languages": [
      "English",
      "Dutch",
      "Papiamento"
    ],
    "religions": []
  },
  {
    "code": "QA",
    "name_vi": "Qatar",
    "name_en": "Qatar",
    "official_name": "State of Qatar",
    "capital": "Doha",
    "continent": "Asia",
    "population_millions": 3,
    "area_km2": 11586,
    "languages": [
      "Arabic"
    ],
    "religions": []
  },
  {
    "code": "WF",
    "name_vi": "Wallis and Futuna",
    "name_en": "Wallis and Futuna",
    "official_name": "Territory of the Wallis and Futuna Islands",
    "capital": "Mata-Utu",
    "continent": "Oceania",
    "population_millions": 0,
    "area_km2": 142,
    "languages": [
      "French"
    ],
    "religions": []
  },
  {
    "code": "GT",
    "name_vi": "Guatemala",
    "name_en": "Guatemala",
    "official_name": "Republic of Guatemala",
    "capital": "Guatemala City",
    "continent": "Americas",
    "population_millions": 17,
    "area_km2": 108889,
    "languages": [
      "Spanish"
    ],
    "religions": []
  },
  {
    "code": "TN",
    "name_vi": "Tunisia",
    "name_en": "Tunisia",
    "official_name": "Tunisian Republic",
    "capital": "Tunis",
    "continent": "Africa",
    "population_millions": 12,
    "area_km2": 163610,
    "languages": [
      "Arabic"
    ],
    "religions": []
  },
  {
    "code": "BT",
    "name_vi": "Bhutan",
    "name_en": "Bhutan",
    "official_name": "Kingdom of Bhutan",
    "capital": "Thimphu",
    "continent": "Asia",
    "population_millions": 1,
    "area_km2": 38394,
    "languages": [
      "Dzongkha"
    ],
    "religions": []
  },
  {
    "code": "MO",
    "name_vi": "Macau",
    "name_en": "Macau",
    "official_name": "Macao Special Administrative Region of the People's Republic of China",
    "capital": "",
    "continent": "Asia",
    "population_millions": 1,
    "area_km2": 30,
    "languages": [
      "Portuguese",
      "Chinese"
    ],
    "religions": []
  },
  {
    "code": "SH",
    "name_vi": "Saint Helena, Ascension and Tristan da Cunha",
    "name_en": "Saint Helena, Ascension and Tristan da Cunha",
    "official_name": "Saint Helena, Ascension and Tristan da Cunha",
    "capital": "Jamestown",
    "continent": "Africa",
    "population_millions": 0,
    "area_km2": 394,
    "languages": [
      "English"
    ],
    "religions": []
  },
  {
    "code": "WS",
    "name_vi": "Samoa",
    "name_en": "Samoa",
    "official_name": "Independent State of Samoa",
    "capital": "Apia",
    "continent": "Oceania",
    "population_millions": 0,
    "area_km2": 2842,
    "languages": [
      "English",
      "Samoan"
    ],
    "religions": []
  },
  {
    "code": "TJ",
    "name_vi": "Tajikistan",
    "name_en": "Tajikistan",
    "official_name": "Republic of Tajikistan",
    "capital": "Dushanbe",
    "continent": "Asia",
    "population_millions": 10,
    "area_km2": 143100,
    "languages": [
      "Russian",
      "Tajik"
    ],
    "religions": []
  },
  {
    "code": "EH",
    "name_vi": "Western Sahara",
    "name_en": "Western Sahara",
    "official_name": "Sahrawi Arab Democratic Republic",
    "capital": "El Aaiún",
    "continent": "Africa",
    "population_millions": 1,
    "area_km2": 266000,
    "languages": [
      "Berber",
      "Hassaniya",
      "Spanish"
    ],
    "religions": []
  },
  {
    "code": "IL",
    "name_vi": "Israel",
    "name_en": "Israel",
    "official_name": "State of Israel",
    "capital": "Jerusalem",
    "continent": "Asia",
    "population_millions": 9,
    "area_km2": 20770,
    "languages": [
      "Arabic",
      "Hebrew"
    ],
    "religions": []
  },
  {
    "code": "SO",
    "name_vi": "Somalia",
    "name_en": "Somalia",
    "official_name": "Federal Republic of Somalia",
    "capital": "Mogadishu",
    "continent": "Africa",
    "population_millions": 16,
    "area_km2": 637657,
    "languages": [
      "Arabic",
      "Somali"
    ],
    "religions": []
  },
  {
    "code": "BL",
    "name_vi": "Saint Barthélemy",
    "name_en": "Saint Barthélemy",
    "official_name": "Collectivity of Saint Barthélemy",
    "capital": "Gustavia",
    "continent": "Americas",
    "population_millions": 0,
    "area_km2": 21,
    "languages": [
      "French"
    ],
    "religions": []
  },
  {
    "code": "GG",
    "name_vi": "Guernsey",
    "name_en": "Guernsey",
    "official_name": "Bailiwick of Guernsey",
    "capital": "St. Peter Port",
    "continent": "Europe",
    "population_millions": 0,
    "area_km2": 78,
    "languages": [
      "English",
      "French",
      "Guernésiais"
    ],
    "religions": []
  },
  {
    "code": "TC",
    "name_vi": "Turks and Caicos Islands",
    "name_en": "Turks and Caicos Islands",
    "official_name": "Turks and Caicos Islands",
    "capital": "Cockburn Town",
    "continent": "Americas",
    "population_millions": 0,
    "area_km2": 948,
    "languages": [
      "English"
    ],
    "religions": []
  },
  {
    "code": "FI",
    "name_vi": "Finland",
    "name_en": "Finland",
    "official_name": "Republic of Finland",
    "capital": "Helsinki",
    "continent": "Europe",
    "population_millions": 6,
    "area_km2": 338424,
    "languages": [
      "Finnish",
      "Swedish"
    ],
    "religions": []
  },
  {
    "code": "LS",
    "name_vi": "Lesotho",
    "name_en": "Lesotho",
    "official_name": "Kingdom of Lesotho",
    "capital": "Maseru",
    "continent": "Africa",
    "population_millions": 2,
    "area_km2": 30355,
    "languages": [
      "English",
      "Sotho"
    ],
    "religions": []
  },
  {
    "code": "RU",
    "name_vi": "Russia",
    "name_en": "Russia",
    "official_name": "Russian Federation",
    "capital": "Moscow",
    "continent": "Europe",
    "population_millions": 144,
    "area_km2": 17098242,
    "languages": [
      "Russian"
    ],
    "religions": []
  },
  {
    "code": "IE",
    "name_vi": "Ireland",
    "name_en": "Ireland",
    "official_name": "Republic of Ireland",
    "capital": "Dublin",
    "continent": "Europe",
    "population_millions": 5,
    "area_km2": 70273,
    "languages": [
      "English",
      "Irish"
    ],
    "religions": []
  },
  {
    "code": "AZ",
    "name_vi": "Azerbaijan",
    "name_en": "Azerbaijan",
    "official_name": "Republic of Azerbaijan",
    "capital": "Baku",
    "continent": "Asia",
    "population_millions": 10,
    "area_km2": 86600,
    "languages": [
      "Azerbaijani"
    ],
    "religions": []
  },
  {
    "code": "JM",
    "name_vi": "Jamaica",
    "name_en": "Jamaica",
    "official_name": "Jamaica",
    "capital": "Kingston",
    "continent": "Americas",
    "population_millions": 3,
    "area_km2": 10991,
    "languages": [
      "English",
      "Jamaican Patois"
    ],
    "religions": []
  },
  {
    "code": "SZ",
    "name_vi": "Eswatini",
    "name_en": "Eswatini",
    "official_name": "Kingdom of Eswatini",
    "capital": "Mbabane",
    "continent": "Africa",
    "population_millions": 1,
    "area_km2": 17364,
    "languages": [
      "English",
      "Swazi"
    ],
    "religions": []
  },
  {
    "code": "GA",
    "name_vi": "Gabon",
    "name_en": "Gabon",
    "official_name": "Gabonese Republic",
    "capital": "Libreville",
    "continent": "Africa",
    "population_millions": 2,
    "area_km2": 267668,
    "languages": [
      "French"
    ],
    "religions": []
  },
  {
    "code": "KH",
    "name_vi": "Cambodia",
    "name_en": "Cambodia",
    "official_name": "Kingdom of Cambodia",
    "capital": "Phnom Penh",
    "continent": "Asia",
    "population_millions": 17,
    "area_km2": 181035,
    "languages": [
      "Khmer"
    ],
    "religions": []
  },
  {
    "code": "SA",
    "name_vi": "Saudi Arabia",
    "name_en": "Saudi Arabia",
    "official_name": "Kingdom of Saudi Arabia",
    "capital": "Riyadh",
    "continent": "Asia",
    "population_millions": 35,
    "area_km2": 2149690,
    "languages": [
      "Arabic"
    ],
    "religions": []
  },
  {
    "code": "FM",
    "name_vi": "Micronesia",
    "name_en": "Micronesia",
    "official_name": "Federated States of Micronesia",
    "capital": "Palikir",
    "continent": "Oceania",
    "population_millions": 0,
    "area_km2": 702,
    "languages": [
      "English"
    ],
    "religions": []
  },
  {
    "code": "KP",
    "name_vi": "North Korea",
    "name_en": "North Korea",
    "official_name": "Democratic People's Republic of Korea",
    "capital": "Pyongyang",
    "continent": "Asia",
    "population_millions": 26,
    "area_km2": 120538,
    "languages": [
      "Korean"
    ],
    "religions": []
  },
  {
    "code": "GQ",
    "name_vi": "Equatorial Guinea",
    "name_en": "Equatorial Guinea",
    "official_name": "Republic of Equatorial Guinea",
    "capital": "Malabo",
    "continent": "Africa",
    "population_millions": 1,
    "area_km2": 28051,
    "languages": [
      "French",
      "Portuguese",
      "Spanish"
    ],
    "religions": []
  },
  {
    "code": "GL",
    "name_vi": "Greenland",
    "name_en": "Greenland",
    "official_name": "Greenland",
    "capital": "Nuuk",
    "continent": "Americas",
    "population_millions": 0,
    "area_km2": 2166086,
    "languages": [
      "Greenlandic"
    ],
    "religions": []
  },
  {
    "code": "MX",
    "name_vi": "Mexico",
    "name_en": "Mexico",
    "official_name": "United Mexican States",
    "capital": "Mexico City",
    "continent": "Americas",
    "population_millions": 129,
    "area_km2": 1964375,
    "languages": [
      "Spanish"
    ],
    "religions": []
  },
  {
    "code": "BR",
    "name_vi": "Brazil",
    "name_en": "Brazil",
    "official_name": "Federative Republic of Brazil",
    "capital": "Brasília",
    "continent": "Americas",
    "population_millions": 213,
    "area_km2": 8515767,
    "languages": [
      "Portuguese"
    ],
    "religions": []
  },
  {
    "code": "NR",
    "name_vi": "Nauru",
    "name_en": "Nauru",
    "official_name": "Republic of Nauru",
    "capital": "Yaren",
    "continent": "Oceania",
    "population_millions": 0,
    "area_km2": 21,
    "languages": [
      "English",
      "Nauru"
    ],
    "religions": []
  },
  {
    "code": "IR",
    "name_vi": "Iran",
    "name_en": "Iran",
    "official_name": "Islamic Republic of Iran",
    "capital": "Tehran",
    "continent": "Asia",
    "population_millions": 84,
    "area_km2": 1648195,
    "languages": [
      "Persian (Farsi)"
    ],
    "religions": []
  },
  {
    "code": "AO",
    "name_vi": "Angola",
    "name_en": "Angola",
    "official_name": "Republic of Angola",
    "capital": "Luanda",
    "continent": "Africa",
    "population_millions": 33,
    "area_km2": 1246700,
    "languages": [
      "Portuguese"
    ],
    "religions": []
  },
  {
    "code": "AW",
    "name_vi": "Aruba",
    "name_en": "Aruba",
    "official_name": "Aruba",
    "capital": "Oranjestad",
    "continent": "Americas",
    "population_millions": 0,
    "area_km2": 180,
    "languages": [
      "Dutch",
      "Papiamento"
    ],
    "religions": []
  },
  {
    "code": "CC",
    "name_vi": "Cocos (Keeling) Islands",
    "name_en": "Cocos (Keeling) Islands",
    "official_name": "Territory of the Cocos (Keeling) Islands",
    "capital": "West Island",
    "continent": "Oceania",
    "population_millions": 0,
    "area_km2": 14,
    "languages": [
      "English"
    ],
    "religions": []
  },
  {
    "code": "MM",
    "name_vi": "Myanmar",
    "name_en": "Myanmar",
    "official_name": "Republic of the Union of Myanmar",
    "capital": "Naypyidaw",
    "continent": "Asia",
    "population_millions": 54,
    "area_km2": 676578,
    "languages": [
      "Burmese"
    ],
    "religions": []
  },
  {
    "code": "EG",
    "name_vi": "Egypt",
    "name_en": "Egypt",
    "official_name": "Arab Republic of Egypt",
    "capital": "Cairo",
    "continent": "Africa",
    "population_millions": 102,
    "area_km2": 1002450,
    "languages": [
      "Arabic"
    ],
    "religions": []
  },
  {
    "code": "IT",
    "name_vi": "Italy",
    "name_en": "Italy",
    "official_name": "Italian Republic",
    "capital": "Rome",
    "continent": "Europe",
    "population_millions": 60,
    "area_km2": 301336,
    "languages": [
      "Italian",
      "Catalan"
    ],
    "religions": []
  },
  {
    "code": "AU",
    "name_vi": "Australia",
    "name_en": "Australia",
    "official_name": "Commonwealth of Australia",
    "capital": "Canberra",
    "continent": "Oceania",
    "population_millions": 26,
    "area_km2": 7692024,
    "languages": [
      "English"
    ],
    "religions": []
  },
  {
    "code": "BW",
    "name_vi": "Botswana",
    "name_en": "Botswana",
    "official_name": "Republic of Botswana",
    "capital": "Gaborone",
    "continent": "Africa",
    "population_millions": 2,
    "area_km2": 582000,
    "languages": [
      "English",
      "Tswana"
    ],
    "religions": []
  },
  {
    "code": "VA",
    "name_vi": "Vatican City",
    "name_en": "Vatican City",
    "official_name": "Vatican City State",
    "capital": "Vatican City",
    "continent": "Europe",
    "population_millions": 0,
    "area_km2": 0.44,
    "languages": [
      "Italian",
      "Latin"
    ],
    "religions": []
  },
  {
    "code": "RE",
    "name_vi": "Réunion",
    "name_en": "Réunion",
    "official_name": "Réunion Island",
    "capital": "Saint-Denis",
    "continent": "Africa",
    "population_millions": 1,
    "area_km2": 2511,
    "languages": [
      "French"
    ],
    "religions": []
  },
  {
    "code": "LR",
    "name_vi": "Liberia",
    "name_en": "Liberia",
    "official_name": "Republic of Liberia",
    "capital": "Monrovia",
    "continent": "Africa",
    "population_millions": 5,
    "area_km2": 111369,
    "languages": [
      "English"
    ],
    "religions": []
  },
  {
    "code": "PT",
    "name_vi": "Portugal",
    "name_en": "Portugal",
    "official_name": "Portuguese Republic",
    "capital": "Lisbon",
    "continent": "Europe",
    "population_millions": 10,
    "area_km2": 92090,
    "languages": [
      "Portuguese"
    ],
    "religions": []
  },
  {
    "code": "AI",
    "name_vi": "Anguilla",
    "name_en": "Anguilla",
    "official_name": "Anguilla",
    "capital": "The Valley",
    "continent": "Americas",
    "population_millions": 0,
    "area_km2": 91,
    "languages": [
      "English"
    ],
    "religions": []
  },
  {
    "code": "SY",
    "name_vi": "Syria",
    "name_en": "Syria",
    "official_name": "Syrian Arab Republic",
    "capital": "Damascus",
    "continent": "Asia",
    "population_millions": 18,
    "area_km2": 185180,
    "languages": [
      "Arabic"
    ],
    "religions": []
  },
  {
    "code": "DK",
    "name_vi": "Denmark",
    "name_en": "Denmark",
    "official_name": "Kingdom of Denmark",
    "capital": "Copenhagen",
    "continent": "Europe",
    "population_millions": 6,
    "area_km2": 43094,
    "languages": [
      "Danish"
    ],
    "religions": []
  },
  {
    "code": "AL",
    "name_vi": "Albania",
    "name_en": "Albania",
    "official_name": "Republic of Albania",
    "capital": "Tirana",
    "continent": "Europe",
    "population_millions": 3,
    "area_km2": 28748,
    "languages": [
      "Albanian"
    ],
    "religions": []
  },
  {
    "code": "SK",
    "name_vi": "Slovakia",
    "name_en": "Slovakia",
    "official_name": "Slovak Republic",
    "capital": "Bratislava",
    "continent": "Europe",
    "population_millions": 5,
    "area_km2": 49037,
    "languages": [
      "Slovak"
    ],
    "religions": []
  },
  {
    "code": "CW",
    "name_vi": "Curaçao",
    "name_en": "Curaçao",
    "official_name": "Country of Curaçao",
    "capital": "Willemstad",
    "continent": "Americas",
    "population_millions": 0,
    "area_km2": 444,
    "languages": [
      "English",
      "Dutch",
      "Papiamento"
    ],
    "religions": []
  },
  {
    "code": "ZM",
    "name_vi": "Zambia",
    "name_en": "Zambia",
    "official_name": "Republic of Zambia",
    "capital": "Lusaka",
    "continent": "Africa",
    "population_millions": 18,
    "area_km2": 752612,
    "languages": [
      "English"
    ],
    "religions": []
  },
  {
    "code": "ST",
    "name_vi": "São Tomé and Príncipe",
    "name_en": "São Tomé and Príncipe",
    "official_name": "Democratic Republic of São Tomé and Príncipe",
    "capital": "São Tomé",
    "continent": "Africa",
    "population_millions": 0,
    "area_km2": 964,
    "languages": [
      "Portuguese"
    ],
    "religions": []
  },
  {
    "code": "BS",
    "name_vi": "Bahamas",
    "name_en": "Bahamas",
    "official_name": "Commonwealth of the Bahamas",
    "capital": "Nassau",
    "continent": "Americas",
    "population_millions": 0,
    "area_km2": 13943,
    "languages": [
      "English"
    ],
    "religions": []
  },
  {
    "code": "NL",
    "name_vi": "Netherlands",
    "name_en": "Netherlands",
    "official_name": "Kingdom of the Netherlands",
    "capital": "Amsterdam",
    "continent": "Europe",
    "population_millions": 17,
    "area_km2": 41850,
    "languages": [
      "Dutch"
    ],
    "religions": []
  },
  {
    "code": "AS",
    "name_vi": "American Samoa",
    "name_en": "American Samoa",
    "official_name": "American Samoa",
    "capital": "Pago Pago",
    "continent": "Oceania",
    "population_millions": 0,
    "area_km2": 199,
    "languages": [
      "English",
      "Samoan"
    ],
    "religions": []
  },
  {
    "code": "BO",
    "name_vi": "Bolivia",
    "name_en": "Bolivia",
    "official_name": "Plurinational State of Bolivia",
    "capital": "Sucre",
    "continent": "Americas",
    "population_millions": 12,
    "area_km2": 1098581,
    "languages": [
      "Aymara",
      "Guaraní",
      "Quechua",
      "Spanish"
    ],
    "religions": []
  },
  {
    "code": "IO",
    "name_vi": "British Indian Ocean Territory",
    "name_en": "British Indian Ocean Territory",
    "official_name": "British Indian Ocean Territory",
    "capital": "Diego Garcia",
    "continent": "Africa",
    "population_millions": 0,
    "area_km2": 60,
    "languages": [
      "English"
    ],
    "religions": []
  },
  {
    "code": "DE",
    "name_vi": "Germany",
    "name_en": "Germany",
    "official_name": "Federal Republic of Germany",
    "capital": "Berlin",
    "continent": "Europe",
    "population_millions": 83,
    "area_km2": 357114,
    "languages": [
      "German"
    ],
    "religions": []
  },
  {
    "code": "ER",
    "name_vi": "Eritrea",
    "name_en": "Eritrea",
    "official_name": "State of Eritrea",
    "capital": "Asmara",
    "continent": "Africa",
    "population_millions": 5,
    "area_km2": 117600,
    "languages": [
      "Arabic",
      "English",
      "Tigrinya"
    ],
    "religions": []
  },
  {
    "code": "EE",
    "name_vi": "Estonia",
    "name_en": "Estonia",
    "official_name": "Republic of Estonia",
    "capital": "Tallinn",
    "continent": "Europe",
    "population_millions": 1,
    "area_km2": 45227,
    "languages": [
      "Estonian"
    ],
    "religions": []
  },
  {
    "code": "ML",
    "name_vi": "Mali",
    "name_en": "Mali",
    "official_name": "Republic of Mali",
    "capital": "Bamako",
    "continent": "Africa",
    "population_millions": 20,
    "area_km2": 1240192,
    "languages": [
      "French"
    ],
    "religions": []
  },
  {
    "code": "KW",
    "name_vi": "Kuwait",
    "name_en": "Kuwait",
    "official_name": "State of Kuwait",
    "capital": "Kuwait City",
    "continent": "Asia",
    "population_millions": 4,
    "area_km2": 17818,
    "languages": [
      "Arabic"
    ],
    "religions": []
  },
  {
    "code": "CD",
    "name_vi": "DR Congo",
    "name_en": "DR Congo",
    "official_name": "Democratic Republic of the Congo",
    "capital": "Kinshasa",
    "continent": "Africa",
    "population_millions": 108,
    "area_km2": 2344858,
    "languages": [
      "French",
      "Kikongo",
      "Lingala",
      "Tshiluba",
      "Swahili"
    ],
    "religions": []
  },
  {
    "code": "HU",
    "name_vi": "Hungary",
    "name_en": "Hungary",
    "official_name": "Hungary",
    "capital": "Budapest",
    "continent": "Europe",
    "population_millions": 10,
    "area_km2": 93028,
    "languages": [
      "Hungarian"
    ],
    "religions": []
  },
  {
    "code": "LY",
    "name_vi": "Libya",
    "name_en": "Libya",
    "official_name": "State of Libya",
    "capital": "Tripoli",
    "continent": "Africa",
    "population_millions": 7,
    "area_km2": 1759540,
    "languages": [
      "Arabic"
    ],
    "religions": []
  },
  {
    "code": "ME",
    "name_vi": "Montenegro",
    "name_en": "Montenegro",
    "official_name": "Montenegro",
    "capital": "Podgorica",
    "continent": "Europe",
    "population_millions": 1,
    "area_km2": 13812,
    "languages": [
      "Montenegrin"
    ],
    "religions": []
  },
  {
    "code": "PY",
    "name_vi": "Paraguay",
    "name_en": "Paraguay",
    "official_name": "Republic of Paraguay",
    "capital": "Asunción",
    "continent": "Americas",
    "population_millions": 7,
    "area_km2": 406752,
    "languages": [
      "Guaraní",
      "Spanish"
    ],
    "religions": []
  },
  {
    "code": "PE",
    "name_vi": "Peru",
    "name_en": "Peru",
    "official_name": "Republic of Peru",
    "capital": "Lima",
    "continent": "Americas",
    "population_millions": 33,
    "area_km2": 1285216,
    "languages": [
      "Aymara",
      "Quechua",
      "Spanish"
    ],
    "religions": []
  },
  {
    "code": "BI",
    "name_vi": "Burundi",
    "name_en": "Burundi",
    "official_name": "Republic of Burundi",
    "capital": "Gitega",
    "continent": "Africa",
    "population_millions": 12,
    "area_km2": 27834,
    "languages": [
      "French",
      "Kirundi"
    ],
    "religions": []
  },
  {
    "code": "LA",
    "name_vi": "Laos",
    "name_en": "Laos",
    "official_name": "Lao People's Democratic Republic",
    "capital": "Vientiane",
    "continent": "Asia",
    "population_millions": 7,
    "area_km2": 236800,
    "languages": [
      "Lao"
    ],
    "religions": []
  },
  {
    "code": "SS",
    "name_vi": "South Sudan",
    "name_en": "South Sudan",
    "official_name": "Republic of South Sudan",
    "capital": "Juba",
    "continent": "Africa",
    "population_millions": 11,
    "area_km2": 619745,
    "languages": [
      "English"
    ],
    "religions": []
  },
  {
    "code": "KY",
    "name_vi": "Cayman Islands",
    "name_en": "Cayman Islands",
    "official_name": "Cayman Islands",
    "capital": "George Town",
    "continent": "Americas",
    "population_millions": 0,
    "area_km2": 264,
    "languages": [
      "English"
    ],
    "religions": []
  },
  {
    "code": "MK",
    "name_vi": "North Macedonia",
    "name_en": "North Macedonia",
    "official_name": "Republic of North Macedonia",
    "capital": "Skopje",
    "continent": "Europe",
    "population_millions": 2,
    "area_km2": 25713,
    "languages": [
      "Macedonian"
    ],
    "religions": []
  },
  {
    "code": "MA",
    "name_vi": "Morocco",
    "name_en": "Morocco",
    "official_name": "Kingdom of Morocco",
    "capital": "Rabat",
    "continent": "Africa",
    "population_millions": 37,
    "area_km2": 446550,
    "languages": [
      "Arabic",
      "Berber"
    ],
    "religions": []
  },
  {
    "code": "LB",
    "name_vi": "Lebanon",
    "name_en": "Lebanon",
    "official_name": "Lebanese Republic",
    "capital": "Beirut",
    "continent": "Asia",
    "population_millions": 7,
    "area_km2": 10452,
    "languages": [
      "Arabic",
      "French"
    ],
    "religions": []
  },
  {
    "code": "AX",
    "name_vi": "Åland Islands",
    "name_en": "Åland Islands",
    "official_name": "Åland Islands",
    "capital": "Mariehamn",
    "continent": "Europe",
    "population_millions": 0,
    "area_km2": 1580,
    "languages": [
      "Swedish"
    ],
    "religions": []
  },
  {
    "code": "GN",
    "name_vi": "Guinea",
    "name_en": "Guinea",
    "official_name": "Republic of Guinea",
    "capital": "Conakry",
    "continent": "Africa",
    "population_millions": 13,
    "area_km2": 245857,
    "languages": [
      "French"
    ],
    "religions": []
  },
  {
    "code": "NI",
    "name_vi": "Nicaragua",
    "name_en": "Nicaragua",
    "official_name": "Republic of Nicaragua",
    "capital": "Managua",
    "continent": "Americas",
    "population_millions": 7,
    "area_km2": 130373,
    "languages": [
      "Spanish"
    ],
    "religions": []
  },
  {
    "code": "GP",
    "name_vi": "Guadeloupe",
    "name_en": "Guadeloupe",
    "official_name": "Guadeloupe",
    "capital": "Basse-Terre",
    "continent": "Americas",
    "population_millions": 0,
    "area_km2": 1628,
    "languages": [
      "French"
    ],
    "religions": []
  },
  {
    "code": "LK",
    "name_vi": "Sri Lanka",
    "name_en": "Sri Lanka",
    "official_name": "Democratic Socialist Republic of Sri Lanka",
    "capital": "Sri Jayawardenepura Kotte",
    "continent": "Asia",
    "population_millions": 22,
    "area_km2": 65610,
    "languages": [
      "Sinhala",
      "Tamil"
    ],
    "religions": []
  },
  {
    "code": "HM",
    "name_vi": "Heard Island and McDonald Islands",
    "name_en": "Heard Island and McDonald Islands",
    "official_name": "Heard Island and McDonald Islands",
    "capital": "",
    "continent": "Antarctic",
    "population_millions": 0,
    "area_km2": 412,
    "languages": [
      "English"
    ],
    "religions": []
  },
  {
    "code": "CN",
    "name_vi": "China",
    "name_en": "China",
    "official_name": "People's Republic of China",
    "capital": "Beijing",
    "continent": "Asia",
    "population_millions": 1402,
    "area_km2": 9706961,
    "languages": [
      "Chinese"
    ],
    "religions": []
  },
  {
    "code": "BH",
    "name_vi": "Bahrain",
    "name_en": "Bahrain",
    "official_name": "Kingdom of Bahrain",
    "capital": "Manama",
    "continent": "Asia",
    "population_millions": 2,
    "area_km2": 765,
    "languages": [
      "Arabic"
    ],
    "religions": []
  },
  {
    "code": "MH",
    "name_vi": "Marshall Islands",
    "name_en": "Marshall Islands",
    "official_name": "Republic of the Marshall Islands",
    "capital": "Majuro",
    "continent": "Oceania",
    "population_millions": 0,
    "area_km2": 181,
    "languages": [
      "English",
      "Marshallese"
    ],
    "religions": []
  },
  {
    "code": "UA",
    "name_vi": "Ukraine",
    "name_en": "Ukraine",
    "official_name": "Ukraine",
    "capital": "Kyiv",
    "continent": "Europe",
    "population_millions": 44,
    "area_km2": 603500,
    "languages": [
      "Ukrainian"
    ],
    "religions": []
  },
  {
    "code": "ZA",
    "name_vi": "South Africa",
    "name_en": "South Africa",
    "official_name": "Republic of South Africa",
    "capital": "Pretoria",
    "continent": "Africa",
    "population_millions": 59,
    "area_km2": 1221037,
    "languages": [
      "Afrikaans",
      "English",
      "Southern Ndebele",
      "Northern Sotho",
      "Southern Sotho",
      "Swazi",
      "Tswana",
      "Tsonga",
      "Venda",
      "Xhosa",
      "Zulu"
    ],
    "religions": []
  },
  {
    "code": "VC",
    "name_vi": "Saint Vincent and the Grenadines",
    "name_en": "Saint Vincent and the Grenadines",
    "official_name": "Saint Vincent and the Grenadines",
    "capital": "Kingstown",
    "continent": "Americas",
    "population_millions": 0,
    "area_km2": 389,
    "languages": [
      "English"
    ],
    "religions": []
  },
  {
    "code": "SC",
    "name_vi": "Seychelles",
    "name_en": "Seychelles",
    "official_name": "Republic of Seychelles",
    "capital": "Victoria",
    "continent": "Africa",
    "population_millions": 0,
    "area_km2": 452,
    "languages": [
      "Seychellois Creole",
      "English",
      "French"
    ],
    "religions": []
  },
  {
    "code": "DO",
    "name_vi": "Dominican Republic",
    "name_en": "Dominican Republic",
    "official_name": "Dominican Republic",
    "capital": "Santo Domingo",
    "continent": "Americas",
    "population_millions": 11,
    "area_km2": 48671,
    "languages": [
      "Spanish"
    ],
    "religions": []
  },
  {
    "code": "ID",
    "name_vi": "Indonesia",
    "name_en": "Indonesia",
    "official_name": "Republic of Indonesia",
    "capital": "Jakarta",
    "continent": "Asia",
    "population_millions": 274,
    "area_km2": 1904569,
    "languages": [
      "Indonesian"
    ],
    "religions": []
  },
  {
    "code": "MW",
    "name_vi": "Malawi",
    "name_en": "Malawi",
    "official_name": "Republic of Malawi",
    "capital": "Lilongwe",
    "continent": "Africa",
    "population_millions": 19,
    "area_km2": 118484,
    "languages": [
      "English",
      "Chewa"
    ],
    "religions": []
  },
  {
    "code": "CM",
    "name_vi": "Cameroon",
    "name_en": "Cameroon",
    "official_name": "Republic of Cameroon",
    "capital": "Yaoundé",
    "continent": "Africa",
    "population_millions": 27,
    "area_km2": 475442,
    "languages": [
      "English",
      "French"
    ],
    "religions": []
  },
  {
    "code": "MG",
    "name_vi": "Madagascar",
    "name_en": "Madagascar",
    "official_name": "Republic of Madagascar",
    "capital": "Antananarivo",
    "continent": "Africa",
    "population_millions": 28,
    "area_km2": 587041,
    "languages": [
      "French",
      "Malagasy"
    ],
    "religions": []
  },
  {
    "code": "KI",
    "name_vi": "Kiribati",
    "name_en": "Kiribati",
    "official_name": "Independent and Sovereign Republic of Kiribati",
    "capital": "South Tarawa",
    "continent": "Oceania",
    "population_millions": 0,
    "area_km2": 811,
    "languages": [
      "English",
      "Gilbertese"
    ],
    "religions": []
  },
  {
    "code": "FJ",
    "name_vi": "Fiji",
    "name_en": "Fiji",
    "official_name": "Republic of Fiji",
    "capital": "Suva",
    "continent": "Oceania",
    "population_millions": 1,
    "area_km2": 18272,
    "languages": [
      "English",
      "Fijian",
      "Fiji Hindi"
    ],
    "religions": []
  },
  {
    "code": "PF",
    "name_vi": "French Polynesia",
    "name_en": "French Polynesia",
    "official_name": "French Polynesia",
    "capital": "Papeetē",
    "continent": "Oceania",
    "population_millions": 0,
    "area_km2": 4167,
    "languages": [
      "French"
    ],
    "religions": []
  },
  {
    "code": "PK",
    "name_vi": "Pakistan",
    "name_en": "Pakistan",
    "official_name": "Islamic Republic of Pakistan",
    "capital": "Islamabad",
    "continent": "Asia",
    "population_millions": 221,
    "area_km2": 881912,
    "languages": [
      "English",
      "Urdu"
    ],
    "religions": []
  },
  {
    "code": "FO",
    "name_vi": "Faroe Islands",
    "name_en": "Faroe Islands",
    "official_name": "Faroe Islands",
    "capital": "Tórshavn",
    "continent": "Europe",
    "population_millions": 0,
    "area_km2": 1393,
    "languages": [
      "Danish",
      "Faroese"
    ],
    "religions": []
  },
  {
    "code": "SR",
    "name_vi": "Suriname",
    "name_en": "Suriname",
    "official_name": "Republic of Suriname",
    "capital": "Paramaribo",
    "continent": "Americas",
    "population_millions": 1,
    "area_km2": 163820,
    "languages": [
      "Dutch"
    ],
    "religions": []
  },
  {
    "code": "DJ",
    "name_vi": "Djibouti",
    "name_en": "Djibouti",
    "official_name": "Republic of Djibouti",
    "capital": "Djibouti",
    "continent": "Africa",
    "population_millions": 1,
    "area_km2": 23200,
    "languages": [
      "Arabic",
      "French"
    ],
    "religions": []
  },
  {
    "code": "GM",
    "name_vi": "Gambia",
    "name_en": "Gambia",
    "official_name": "Republic of the Gambia",
    "capital": "Banjul",
    "continent": "Africa",
    "population_millions": 2,
    "area_km2": 10689,
    "languages": [
      "English"
    ],
    "religions": []
  },
  {
    "code": "MN",
    "name_vi": "Mongolia",
    "name_en": "Mongolia",
    "official_name": "Mongolia",
    "capital": "Ulan Bator",
    "continent": "Asia",
    "population_millions": 3,
    "area_km2": 1564110,
    "languages": [
      "Mongolian"
    ],
    "religions": []
  },
  {
    "code": "ZW",
    "name_vi": "Zimbabwe",
    "name_en": "Zimbabwe",
    "official_name": "Republic of Zimbabwe",
    "capital": "Harare",
    "continent": "Africa",
    "population_millions": 15,
    "area_km2": 390757,
    "languages": [
      "Chibarwe",
      "English",
      "Kalanga",
      "Khoisan",
      "Ndau",
      "Northern Ndebele",
      "Chewa",
      "Shona",
      "Sotho",
      "Tonga",
      "Tswana",
      "Tsonga",
      "Venda",
      "Xhosa",
      "Zimbabwean Sign Language"
    ],
    "religions": []
  },
  {
    "code": "IS",
    "name_vi": "Iceland",
    "name_en": "Iceland",
    "official_name": "Iceland",
    "capital": "Reykjavik",
    "continent": "Europe",
    "population_millions": 0,
    "area_km2": 103000,
    "languages": [
      "Icelandic"
    ],
    "religions": []
  },
  {
    "code": "HT",
    "name_vi": "Haiti",
    "name_en": "Haiti",
    "official_name": "Republic of Haiti",
    "capital": "Port-au-Prince",
    "continent": "Americas",
    "population_millions": 11,
    "area_km2": 27750,
    "languages": [
      "French",
      "Haitian Creole"
    ],
    "religions": []
  },
  {
    "code": "RO",
    "name_vi": "Romania",
    "name_en": "Romania",
    "official_name": "Romania",
    "capital": "Bucharest",
    "continent": "Europe",
    "population_millions": 19,
    "area_km2": 238391,
    "languages": [
      "Romanian"
    ],
    "religions": []
  },
  {
    "code": "CR",
    "name_vi": "Costa Rica",
    "name_en": "Costa Rica",
    "official_name": "Republic of Costa Rica",
    "capital": "San José",
    "continent": "Americas",
    "population_millions": 5,
    "area_km2": 51100,
    "languages": [
      "Spanish"
    ],
    "religions": []
  },
  {
    "code": "HR",
    "name_vi": "Croatia",
    "name_en": "Croatia",
    "official_name": "Republic of Croatia",
    "capital": "Zagreb",
    "continent": "Europe",
    "population_millions": 4,
    "area_km2": 56594,
    "languages": [
      "Croatian"
    ],
    "religions": []
  },
  {
    "code": "VN",
    "name_vi": "Vietnam",
    "name_en": "Vietnam",
    "official_name": "Socialist Republic of Vietnam",
    "capital": "Hanoi",
    "continent": "Asia",
    "population_millions": 97,
    "area_km2": 331212,
    "languages": [
      "Vietnamese"
    ],
    "religions": []
  },
  {
    "code": "KR",
    "name_vi": "South Korea",
    "name_en": "South Korea",
    "official_name": "Republic of Korea",
    "capital": "Seoul",
    "continent": "Asia",
    "population_millions": 52,
    "area_km2": 100210,
    "languages": [
      "Korean"
    ],
    "religions": []
  },
  {
    "code": "NF",
    "name_vi": "Norfolk Island",
    "name_en": "Norfolk Island",
    "official_name": "Territory of Norfolk Island",
    "capital": "Kingston",
    "continent": "Oceania",
    "population_millions": 0,
    "area_km2": 36,
    "languages": [
      "English",
      "Norfuk"
    ],
    "religions": []
  },
  {
    "code": "CA",
    "name_vi": "Canada",
    "name_en": "Canada",
    "official_name": "Canada",
    "capital": "Ottawa",
    "continent": "Americas",
    "population_millions": 38,
    "area_km2": 9984670,
    "languages": [
      "English",
      "French"
    ],
    "religions": []
  },
  {
    "code": "LI",
    "name_vi": "Liechtenstein",
    "name_en": "Liechtenstein",
    "official_name": "Principality of Liechtenstein",
    "capital": "Vaduz",
    "continent": "Europe",
    "population_millions": 0,
    "area_km2": 160,
    "languages": [
      "German"
    ],
    "religions": []
  },
  {
    "code": "MC",
    "name_vi": "Monaco",
    "name_en": "Monaco",
    "official_name": "Principality of Monaco",
    "capital": "Monaco",
    "continent": "Europe",
    "population_millions": 0,
    "area_km2": 2.02,
    "languages": [
      "French"
    ],
    "religions": []
  },
  {
    "code": "PR",
    "name_vi": "Puerto Rico",
    "name_en": "Puerto Rico",
    "official_name": "Commonwealth of Puerto Rico",
    "capital": "San Juan",
    "continent": "Americas",
    "population_millions": 3,
    "area_km2": 8870,
    "languages": [
      "English",
      "Spanish"
    ],
    "religions": []
  },
  {
    "code": "TV",
    "name_vi": "Tuvalu",
    "name_en": "Tuvalu",
    "official_name": "Tuvalu",
    "capital": "Funafuti",
    "continent": "Oceania",
    "population_millions": 0,
    "area_km2": 26,
    "languages": [
      "English",
      "Tuvaluan"
    ],
    "religions": []
  },
  {
    "code": "GF",
    "name_vi": "French Guiana",
    "name_en": "French Guiana",
    "official_name": "Guiana",
    "capital": "Cayenne",
    "continent": "Americas",
    "population_millions": 0,
    "area_km2": 83534,
    "languages": [
      "French"
    ],
    "religions": []
  },
  {
    "code": "MF",
    "name_vi": "Saint Martin",
    "name_en": "Saint Martin",
    "official_name": "Saint Martin",
    "capital": "Marigot",
    "continent": "Americas",
    "population_millions": 0,
    "area_km2": 53,
    "languages": [
      "French"
    ],
    "religions": []
  },
  {
    "code": "MU",
    "name_vi": "Mauritius",
    "name_en": "Mauritius",
    "official_name": "Republic of Mauritius",
    "capital": "Port Louis",
    "continent": "Africa",
    "population_millions": 1,
    "area_km2": 2040,
    "languages": [
      "English",
      "French",
      "Mauritian Creole"
    ],
    "religions": []
  },
  {
    "code": "GS",
    "name_vi": "South Georgia",
    "name_en": "South Georgia",
    "official_name": "South Georgia and the South Sandwich Islands",
    "capital": "King Edward Point",
    "continent": "Antarctic",
    "population_millions": 0,
    "area_km2": 3903,
    "languages": [
      "English"
    ],
    "religions": []
  },
  {
    "code": "PG",
    "name_vi": "Papua New Guinea",
    "name_en": "Papua New Guinea",
    "official_name": "Independent State of Papua New Guinea",
    "capital": "Port Moresby",
    "continent": "Oceania",
    "population_millions": 9,
    "area_km2": 462840,
    "languages": [
      "English",
      "Hiri Motu",
      "Tok Pisin"
    ],
    "religions": []
  },
  {
    "code": "KZ",
    "name_vi": "Kazakhstan",
    "name_en": "Kazakhstan",
    "official_name": "Republic of Kazakhstan",
    "capital": "Astana",
    "continent": "Asia",
    "population_millions": 19,
    "area_km2": 2724900,
    "languages": [
      "Kazakh",
      "Russian"
    ],
    "religions": []
  },
  {
    "code": "MY",
    "name_vi": "Malaysia",
    "name_en": "Malaysia",
    "official_name": "Malaysia",
    "capital": "Kuala Lumpur",
    "continent": "Asia",
    "population_millions": 32,
    "area_km2": 330803,
    "languages": [
      "English",
      "Malay"
    ],
    "religions": []
  },
  {
    "code": "UG",
    "name_vi": "Uganda",
    "name_en": "Uganda",
    "official_name": "Republic of Uganda",
    "capital": "Kampala",
    "continent": "Africa",
    "population_millions": 46,
    "area_km2": 241550,
    "languages": [
      "English",
      "Swahili"
    ],
    "religions": []
  },
  {
    "code": "BF",
    "name_vi": "Burkina Faso",
    "name_en": "Burkina Faso",
    "official_name": "Burkina Faso",
    "capital": "Ouagadougou",
    "continent": "Africa",
    "population_millions": 21,
    "area_km2": 272967,
    "languages": [
      "French"
    ],
    "religions": []
  },
  {
    "code": "GD",
    "name_vi": "Grenada",
    "name_en": "Grenada",
    "official_name": "Grenada",
    "capital": "St. George's",
    "continent": "Americas",
    "population_millions": 0,
    "area_km2": 344,
    "languages": [
      "English"
    ],
    "religions": []
  },
  {
    "code": "SG",
    "name_vi": "Singapore",
    "name_en": "Singapore",
    "official_name": "Republic of Singapore",
    "capital": "Singapore",
    "continent": "Asia",
    "population_millions": 6,
    "area_km2": 710,
    "languages": [
      "English",
      "Chinese",
      "Malay",
      "Tamil"
    ],
    "religions": []
  },
  {
    "code": "CK",
    "name_vi": "Cook Islands",
    "name_en": "Cook Islands",
    "official_name": "Cook Islands",
    "capital": "Avarua",
    "continent": "Oceania",
    "population_millions": 0,
    "area_km2": 236,
    "languages": [
      "English",
      "Cook Islands Māori"
    ],
    "religions": []
  },
  {
    "code": "MV",
    "name_vi": "Maldives",
    "name_en": "Maldives",
    "official_name": "Republic of the Maldives",
    "capital": "Malé",
    "continent": "Asia",
    "population_millions": 1,
    "area_km2": 300,
    "languages": [
      "Maldivian"
    ],
    "religions": []
  },
  {
    "code": "YE",
    "name_vi": "Yemen",
    "name_en": "Yemen",
    "official_name": "Republic of Yemen",
    "capital": "Sana'a",
    "continent": "Asia",
    "population_millions": 30,
    "area_km2": 527968,
    "languages": [
      "Arabic"
    ],
    "religions": []
  },
  {
    "code": "VI",
    "name_vi": "United States Virgin Islands",
    "name_en": "United States Virgin Islands",
    "official_name": "Virgin Islands of the United States",
    "capital": "Charlotte Amalie",
    "continent": "Americas",
    "population_millions": 0,
    "area_km2": 347,
    "languages": [
      "English"
    ],
    "religions": []
  },
  {
    "code": "JE",
    "name_vi": "Jersey",
    "name_en": "Jersey",
    "official_name": "Bailiwick of Jersey",
    "capital": "Saint Helier",
    "continent": "Europe",
    "population_millions": 0,
    "area_km2": 116,
    "languages": [
      "English",
      "French",
      "Jèrriais"
    ],
    "religions": []
  },
  {
    "code": "MQ",
    "name_vi": "Martinique",
    "name_en": "Martinique",
    "official_name": "Martinique",
    "capital": "Fort-de-France",
    "continent": "Americas",
    "population_millions": 0,
    "area_km2": 1128,
    "languages": [
      "French"
    ],
    "religions": []
  },
  {
    "code": "VG",
    "name_vi": "British Virgin Islands",
    "name_en": "British Virgin Islands",
    "official_name": "Virgin Islands",
    "capital": "Road Town",
    "continent": "Americas",
    "population_millions": 0,
    "area_km2": 151,
    "languages": [
      "English"
    ],
    "religions": []
  },
  {
    "code": "AG",
    "name_vi": "Antigua and Barbuda",
    "name_en": "Antigua and Barbuda",
    "official_name": "Antigua and Barbuda",
    "capital": "Saint John's",
    "continent": "Americas",
    "population_millions": 0,
    "area_km2": 442,
    "languages": [
      "English"
    ],
    "religions": []
  },
  {
    "code": "PA",
    "name_vi": "Panama",
    "name_en": "Panama",
    "official_name": "Republic of Panama",
    "capital": "Panama City",
    "continent": "Americas",
    "population_millions": 4,
    "area_km2": 75417,
    "languages": [
      "Spanish"
    ],
    "religions": []
  },
  {
    "code": "TH",
    "name_vi": "Thailand",
    "name_en": "Thailand",
    "official_name": "Kingdom of Thailand",
    "capital": "Bangkok",
    "continent": "Asia",
    "population_millions": 70,
    "area_km2": 513120,
    "languages": [
      "Thai"
    ],
    "religions": []
  },
  {
    "code": "SE",
    "name_vi": "Sweden",
    "name_en": "Sweden",
    "official_name": "Kingdom of Sweden",
    "capital": "Stockholm",
    "continent": "Europe",
    "population_millions": 10,
    "area_km2": 450295,
    "languages": [
      "Swedish"
    ],
    "religions": []
  },
  {
    "code": "DZ",
    "name_vi": "Algeria",
    "name_en": "Algeria",
    "official_name": "People's Democratic Republic of Algeria",
    "capital": "Algiers",
    "continent": "Africa",
    "population_millions": 45,
    "area_km2": 2381741,
    "languages": [
      "Arabic"
    ],
    "religions": []
  },
  {
    "code": "MZ",
    "name_vi": "Mozambique",
    "name_en": "Mozambique",
    "official_name": "Republic of Mozambique",
    "capital": "Maputo",
    "continent": "Africa",
    "population_millions": 31,
    "area_km2": 801590,
    "languages": [
      "Portuguese"
    ],
    "religions": []
  },
  {
    "code": "NA",
    "name_vi": "Namibia",
    "name_en": "Namibia",
    "official_name": "Republic of Namibia",
    "capital": "Windhoek",
    "continent": "Africa",
    "population_millions": 3,
    "area_km2": 825615,
    "languages": [
      "Afrikaans",
      "German",
      "English",
      "Herero",
      "Khoekhoe",
      "Kwangali",
      "Lozi",
      "Ndonga",
      "Tswana"
    ],
    "religions": []
  },
  {
    "code": "BB",
    "name_vi": "Barbados",
    "name_en": "Barbados",
    "official_name": "Barbados",
    "capital": "Bridgetown",
    "continent": "Americas",
    "population_millions": 0,
    "area_km2": 430,
    "languages": [
      "English"
    ],
    "religions": []
  },
  {
    "code": "SJ",
    "name_vi": "Svalbard and Jan Mayen",
    "name_en": "Svalbard and Jan Mayen",
    "official_name": "Svalbard og Jan Mayen",
    "capital": "Longyearbyen",
    "continent": "Europe",
    "population_millions": 0,
    "area_km2": 61399,
    "languages": [
      "Norwegian"
    ],
    "religions": []
  },
  {
    "code": "HK",
    "name_vi": "Hong Kong",
    "name_en": "Hong Kong",
    "official_name": "Hong Kong Special Administrative Region of the People's Republic of China",
    "capital": "City of Victoria",
    "continent": "Asia",
    "population_millions": 8,
    "area_km2": 1104,
    "languages": [
      "English",
      "Chinese"
    ],
    "religions": []
  },
  {
    "code": "HN",
    "name_vi": "Honduras",
    "name_en": "Honduras",
    "official_name": "Republic of Honduras",
    "capital": "Tegucigalpa",
    "continent": "Americas",
    "population_millions": 10,
    "area_km2": 112492,
    "languages": [
      "Spanish"
    ],
    "religions": []
  },
  {
    "code": "JP",
    "name_vi": "Japan",
    "name_en": "Japan",
    "official_name": "Japan",
    "capital": "Tokyo",
    "continent": "Asia",
    "population_millions": 126,
    "area_km2": 377930,
    "languages": [
      "Japanese"
    ],
    "religions": []
  },
  {
    "code": "UM",
    "name_vi": "United States Minor Outlying Islands",
    "name_en": "United States Minor Outlying Islands",
    "official_name": "United States Minor Outlying Islands",
    "capital": "Washington DC",
    "continent": "Americas",
    "population_millions": 0,
    "area_km2": 34.2,
    "languages": [
      "English"
    ],
    "religions": []
  },
  {
    "code": "GU",
    "name_vi": "Guam",
    "name_en": "Guam",
    "official_name": "Guam",
    "capital": "Hagåtña",
    "continent": "Oceania",
    "population_millions": 0,
    "area_km2": 549,
    "languages": [
      "Chamorro",
      "English",
      "Spanish"
    ],
    "religions": []
  },
  {
    "code": "SX",
    "name_vi": "Sint Maarten",
    "name_en": "Sint Maarten",
    "official_name": "Sint Maarten",
    "capital": "Philipsburg",
    "continent": "Americas",
    "population_millions": 0,
    "area_km2": 34,
    "languages": [
      "English",
      "French",
      "Dutch"
    ],
    "religions": []
  },
  {
    "code": "BY",
    "name_vi": "Belarus",
    "name_en": "Belarus",
    "official_name": "Republic of Belarus",
    "capital": "Minsk",
    "continent": "Europe",
    "population_millions": 9,
    "area_km2": 207600,
    "languages": [
      "Belarusian",
      "Russian"
    ],
    "religions": []
  },
  {
    "code": "BM",
    "name_vi": "Bermuda",
    "name_en": "Bermuda",
    "official_name": "Bermuda",
    "capital": "Hamilton",
    "continent": "Americas",
    "population_millions": 0,
    "area_km2": 54,
    "languages": [
      "English"
    ],
    "religions": []
  },
  {
    "code": "BA",
    "name_vi": "Bosnia and Herzegovina",
    "name_en": "Bosnia and Herzegovina",
    "official_name": "Bosnia and Herzegovina",
    "capital": "Sarajevo",
    "continent": "Europe",
    "population_millions": 3,
    "area_km2": 51209,
    "languages": [
      "Bosnian",
      "Croatian",
      "Serbian"
    ],
    "religions": []
  },
  {
    "code": "GI",
    "name_vi": "Gibraltar",
    "name_en": "Gibraltar",
    "official_name": "Gibraltar",
    "capital": "Gibraltar",
    "continent": "Europe",
    "population_millions": 0,
    "area_km2": 6,
    "languages": [
      "English"
    ],
    "religions": []
  },
  {
    "code": "KE",
    "name_vi": "Kenya",
    "name_en": "Kenya",
    "official_name": "Republic of Kenya",
    "capital": "Nairobi",
    "continent": "Africa",
    "population_millions": 54,
    "area_km2": 580367,
    "languages": [
      "English",
      "Swahili"
    ],
    "religions": []
  },
  {
    "code": "NZ",
    "name_vi": "New Zealand",
    "name_en": "New Zealand",
    "official_name": "New Zealand",
    "capital": "Wellington",
    "continent": "Oceania",
    "population_millions": 5,
    "area_km2": 270467,
    "languages": [
      "English",
      "Māori",
      "New Zealand Sign Language"
    ],
    "religions": []
  },
  {
    "code": "TF",
    "name_vi": "French Southern and Antarctic Lands",
    "name_en": "French Southern and Antarctic Lands",
    "official_name": "Territory of the French Southern and Antarctic Lands",
    "capital": "Port-aux-Français",
    "continent": "Antarctic",
    "population_millions": 0,
    "area_km2": 7747,
    "languages": [
      "French"
    ],
    "religions": []
  },
  {
    "code": "TK",
    "name_vi": "Tokelau",
    "name_en": "Tokelau",
    "official_name": "Tokelau",
    "capital": "Fakaofo",
    "continent": "Oceania",
    "population_millions": 0,
    "area_km2": 12,
    "languages": [
      "English",
      "Samoan",
      "Tokelauan"
    ],
    "religions": []
  },
  {
    "code": "GY",
    "name_vi": "Guyana",
    "name_en": "Guyana",
    "official_name": "Co-operative Republic of Guyana",
    "capital": "Georgetown",
    "continent": "Americas",
    "population_millions": 1,
    "area_km2": 214969,
    "languages": [
      "English"
    ],
    "religions": []
  },
  {
    "code": "NP",
    "name_vi": "Nepal",
    "name_en": "Nepal",
    "official_name": "Federal Democratic Republic of Nepal",
    "capital": "Kathmandu",
    "continent": "Asia",
    "population_millions": 29,
    "area_km2": 147181,
    "languages": [
      "Nepali"
    ],
    "religions": []
  },
  {
    "code": "IN",
    "name_vi": "India",
    "name_en": "India",
    "official_name": "Republic of India",
    "capital": "New Delhi",
    "continent": "Asia",
    "population_millions": 1380,
    "area_km2": 3287590,
    "languages": [
      "English",
      "Hindi",
      "Tamil"
    ],
    "religions": []
  },
  {
    "code": "TT",
    "name_vi": "Trinidad and Tobago",
    "name_en": "Trinidad and Tobago",
    "official_name": "Republic of Trinidad and Tobago",
    "capital": "Port of Spain",
    "continent": "Americas",
    "population_millions": 1,
    "area_km2": 5130,
    "languages": [
      "English"
    ],
    "religions": []
  },
  {
    "code": "LU",
    "name_vi": "Luxembourg",
    "name_en": "Luxembourg",
    "official_name": "Grand Duchy of Luxembourg",
    "capital": "Luxembourg",
    "continent": "Europe",
    "population_millions": 1,
    "area_km2": 2586,
    "languages": [
      "German",
      "French",
      "Luxembourgish"
    ],
    "religions": []
  },
  {
    "code": "CH",
    "name_vi": "Switzerland",
    "name_en": "Switzerland",
    "official_name": "Swiss Confederation",
    "capital": "Bern",
    "continent": "Europe",
    "population_millions": 9,
    "area_km2": 41284,
    "languages": [
      "French",
      "Swiss German",
      "Italian",
      "Romansh"
    ],
    "religions": []
  },
  {
    "code": "TW",
    "name_vi": "Taiwan",
    "name_en": "Taiwan",
    "official_name": "Republic of China (Taiwan)",
    "capital": "Taipei",
    "continent": "Asia",
    "population_millions": 24,
    "area_km2": 36193,
    "languages": [
      "Chinese"
    ],
    "religions": []
  },
  {
    "code": "IQ",
    "name_vi": "Iraq",
    "name_en": "Iraq",
    "official_name": "Republic of Iraq",
    "capital": "Baghdad",
    "continent": "Asia",
    "population_millions": 40,
    "area_km2": 438317,
    "languages": [
      "Arabic",
      "Aramaic",
      "Sorani"
    ],
    "religions": []
  },
  {
    "code": "NO",
    "name_vi": "Norway",
    "name_en": "Norway",
    "official_name": "Kingdom of Norway",
    "capital": "Oslo",
    "continent": "Europe",
    "population_millions": 5,
    "area_km2": 323802,
    "languages": [
      "Norwegian Nynorsk",
      "Norwegian Bokmål",
      "Sami"
    ],
    "religions": []
  },
  {
    "code": "OM",
    "name_vi": "Oman",
    "name_en": "Oman",
    "official_name": "Sultanate of Oman",
    "capital": "Muscat",
    "continent": "Asia",
    "population_millions": 5,
    "area_km2": 309500,
    "languages": [
      "Arabic"
    ],
    "religions": []
  },
  {
    "code": "GB",
    "name_vi": "United Kingdom",
    "name_en": "United Kingdom",
    "official_name": "United Kingdom of Great Britain and Northern Ireland",
    "capital": "London",
    "continent": "Europe",
    "population_millions": 67,
    "area_km2": 242900,
    "languages": [
      "English"
    ],
    "religions": []
  },
  {
    "code": "DM",
    "name_vi": "Dominica",
    "name_en": "Dominica",
    "official_name": "Commonwealth of Dominica",
    "capital": "Roseau",
    "continent": "Americas",
    "population_millions": 0,
    "area_km2": 751,
    "languages": [
      "English"
    ],
    "religions": []
  },
  {
    "code": "ES",
    "name_vi": "Spain",
    "name_en": "Spain",
    "official_name": "Kingdom of Spain",
    "capital": "Madrid",
    "continent": "Europe",
    "population_millions": 47,
    "area_km2": 505992,
    "languages": [
      "Spanish",
      "Catalan",
      "Basque",
      "Galician"
    ],
    "religions": []
  },
  {
    "code": "RS",
    "name_vi": "Serbia",
    "name_en": "Serbia",
    "official_name": "Republic of Serbia",
    "capital": "Belgrade",
    "continent": "Europe",
    "population_millions": 7,
    "area_km2": 88361,
    "languages": [
      "Serbian"
    ],
    "religions": []
  },
  {
    "code": "SI",
    "name_vi": "Slovenia",
    "name_en": "Slovenia",
    "official_name": "Republic of Slovenia",
    "capital": "Ljubljana",
    "continent": "Europe",
    "population_millions": 2,
    "area_km2": 20273,
    "languages": [
      "Slovene"
    ],
    "religions": []
  },
  {
    "code": "AM",
    "name_vi": "Armenia",
    "name_en": "Armenia",
    "official_name": "Republic of Armenia",
    "capital": "Yerevan",
    "continent": "Asia",
    "population_millions": 3,
    "area_km2": 29743,
    "languages": [
      "Armenian"
    ],
    "religions": []
  },
  {
    "code": "NE",
    "name_vi": "Niger",
    "name_en": "Niger",
    "official_name": "Republic of Niger",
    "capital": "Niamey",
    "continent": "Africa",
    "population_millions": 24,
    "area_km2": 1267000,
    "languages": [
      "French"
    ],
    "religions": []
  },
  {
    "code": "BV",
    "name_vi": "Bouvet Island",
    "name_en": "Bouvet Island",
    "official_name": "Bouvet Island",
    "capital": "",
    "continent": "Antarctic",
    "population_millions": 0,
    "area_km2": 49,
    "languages": [
      "Norwegian"
    ],
    "religions": []
  },
  {
    "code": "CX",
    "name_vi": "Christmas Island",
    "name_en": "Christmas Island",
    "official_name": "Territory of Christmas Island",
    "capital": "Flying Fish Cove",
    "continent": "Oceania",
    "population_millions": 0,
    "area_km2": 135,
    "languages": [
      "English"
    ],
    "religions": []
  },
  {
    "code": "CO",
    "name_vi": "Colombia",
    "name_en": "Colombia",
    "official_name": "Republic of Colombia",
    "capital": "Bogotá",
    "continent": "Americas",
    "population_millions": 51,
    "area_km2": 1141748,
    "languages": [
      "Spanish"
    ],
    "religions": []
  },
  {
    "code": "PL",
    "name_vi": "Poland",
    "name_en": "Poland",
    "official_name": "Republic of Poland",
    "capital": "Warsaw",
    "continent": "Europe",
    "population_millions": 38,
    "area_km2": 312679,
    "languages": [
      "Polish"
    ],
    "religions": []
  },
  {
    "code": "TR",
    "name_vi": "Turkey",
    "name_en": "Turkey",
    "official_name": "Republic of Turkey",
    "capital": "Ankara",
    "continent": "Asia",
    "population_millions": 84,
    "area_km2": 783562,
    "languages": [
      "Turkish"
    ],
    "religions": []
  },
  {
    "code": "BN",
    "name_vi": "Brunei",
    "name_en": "Brunei",
    "official_name": "Nation of Brunei, Abode of Peace",
    "capital": "Bandar Seri Begawan",
    "continent": "Asia",
    "population_millions": 0,
    "area_km2": 5765,
    "languages": [
      "Malay"
    ],
    "religions": []
  },
  {
    "code": "MR",
    "name_vi": "Mauritania",
    "name_en": "Mauritania",
    "official_name": "Islamic Republic of Mauritania",
    "capital": "Nouakchott",
    "continent": "Africa",
    "population_millions": 5,
    "area_km2": 1030700,
    "languages": [
      "Arabic"
    ],
    "religions": []
  }
]